start=new Date('2023-06-17T00:00:00.000Z').valueOf();
sats=[{"OBJECT_NAME":"STARLINK-2309","TIME_SYSTEM":"UTC","REV_AT_EPOCH":"12508","ARG_OF_PERICENTER":"90.0593","TLE_LINE2":"2 47995  53.0545  72.3913 0001975  90.0593 270.0623 15.06427681125087","MEAN_MOTION_DOT":"0.00010569","APOAPSIS":"548.496","LAUNCH_DATE":"2021-03-24","ECCENTRICITY":"0.00019750","MEAN_ANOMALY":"270.0623","PERIAPSIS":"545.761","MEAN_ELEMENT_THEORY":"SGP4","RCS_SIZE":"LARGE","FILE":"3934949","NORAD_CAT_ID":"47995","GP_ID":"234093540","REF_FRAME":"TEME","DECAY_DATE":null,"MEAN_MOTION_DDOT":"0.0000000000000","SITE":"AFETR","ELEMENT_SET_NO":"999","CENTER_NAME":"EARTH","SEMIMAJOR_AXIS":"6925.264","TLE_LINE1":"1 47995U 21024U   23167.74596334  .00010569  00000-0  72682-3 0  9992","PERIOD":"95.590","BSTAR":"0.00072682000000","INCLINATION":"53.0545","OBJECT_TYPE":"PAYLOAD","MEAN_MOTION":"15.06427681","EPOCH":"2023-06-16T17:54:11.232576","EPHEMERIS_TYPE":"0","CLASSIFICATION_TYPE":"U","COUNTRY_CODE":"US","RA_OF_ASC_NODE":"72.3913","OBJECT_ID":"2021-024U"},{"OBJECT_TYPE":"PAYLOAD","INCLINATION":"53.0540","BSTAR":"0.00074607000000","PERIOD":"95.591","EPHEMERIS_TYPE":"0","EPOCH":"2023-06-16T18:54:33.304608","MEAN_MOTION":"15.06412198","DECAY_DATE":null,"SEMIMAJOR_AXIS":"6925.311","TLE_LINE1":"1 47996U 21024V   23167.78788547  .00010852  00000-0  74607-3 0  9990","ELEMENT_SET_NO":"999","CENTER_NAME":"EARTH","MEAN_MOTION_DDOT":"0.0000000000000","SITE":"AFETR","RA_OF_ASC_NODE":"357.1870","OBJECT_ID":"2021-024V","COUNTRY_CODE":"US","CLASSIFICATION_TYPE":"U","TLE_LINE2":"2 47996  53.0540 357.1870 0000729  88.9679 271.1393 15.06412198126192","MEAN_MOTION_DOT":"0.00010852","ARG_OF_PERICENTER":"88.9679","REV_AT_EPOCH":"12619","TIME_SYSTEM":"UTC","OBJECT_NAME":"STARLINK-2260","RCS_SIZE":"LARGE","FILE":"3934949","NORAD_CAT_ID":"47996","GP_ID":"234093789","REF_FRAME":"TEME","LAUNCH_DATE":"2021-03-24","APOAPSIS":"547.681","MEAN_ANOMALY":"271.1393","PERIAPSIS":"546.671","MEAN_ELEMENT_THEORY":"SGP4","ECCENTRICITY":"0.00007290"},{"DECAY_DATE":null,"SITE":"AFETR","MEAN_MOTION_DDOT":"0.0000000000000","ELEMENT_SET_NO":"999","CENTER_NAME":"EARTH","SEMIMAJOR_AXIS":"6925.367","TLE_LINE1":"1 47997U 21024W   23167.85143805  .00001931  00000-0  14849-3 0  9991","PERIOD":"95.593","BSTAR":"0.00014849000000","INCLINATION":"53.0534","OBJECT_TYPE":"PAYLOAD","MEAN_MOTION":"15.06394005","EPHEMERIS_TYPE":"0","EPOCH":"2023-06-16T20:26:04.247520","CLASSIFICATION_TYPE":"U","COUNTRY_CODE":"US","RA_OF_ASC_NODE":"106.5992","OBJECT_ID":"2021-024W","OBJECT_NAME":"STARLINK-2266","TIME_SYSTEM":"UTC","REV_AT_EPOCH":"12466","ARG_OF_PERICENTER":"93.5103","TLE_LINE2":"2 47997  53.0534 106.5992 0000992  93.5103 266.6000 15.06394005124663","MEAN_MOTION_DOT":"0.00001931","APOAPSIS":"547.919","LAUNCH_DATE":"2021-03-24","ECCENTRICITY":"0.00009920","PERIAPSIS":"546.545","MEAN_ELEMENT_THEORY":"SGP4","MEAN_ANOMALY":"266.6000","RCS_SIZE":"LARGE","FILE":"3934949","NORAD_CAT_ID":"47997","GP_ID":"234094029","REF_FRAME":"TEME"},{"NORAD_CAT_ID":"47998","FILE":"3934949","RCS_SIZE":"LARGE","REF_FRAME":"TEME","GP_ID":"234092791","APOAPSIS":"548.649","LAUNCH_DATE":"2021-03-24","ECCENTRICITY":"0.00021300","MEAN_ELEMENT_THEORY":"SGP4","PERIAPSIS":"545.699","MEAN_ANOMALY":"273.9243","TLE_LINE2":"2 47998  53.0541  82.0996 0002130  86.1990 273.9243 15.06412897124943","MEAN_MOTION_DOT":"0.00008144","OBJECT_NAME":"STARLINK-2296","TIME_SYSTEM":"UTC","REV_AT_EPOCH":"12494","ARG_OF_PERICENTER":"86.1990","RA_OF_ASC_NODE":"82.0996","OBJECT_ID":"2021-024X","CLASSIFICATION_TYPE":"U","COUNTRY_CODE":"US","PERIOD":"95.591","BSTAR":"0.00056482000000","INCLINATION":"53.0541","OBJECT_TYPE":"PAYLOAD","MEAN_MOTION":"15.06412897","EPHEMERIS_TYPE":"0","EPOCH":"2023-06-16T19:01:50.801376","DECAY_DATE":null,"MEAN_MOTION_DDOT":"0.0000000000000","SITE":"AFETR","ELEMENT_SET_NO":"999","CENTER_NAME":"EARTH","TLE_LINE1":"1 47998U 21024X   23167.79294909  .00008144  00000-0  56482-3 0  9999","SEMIMAJOR_AXIS":"6925.309"},{"REV_AT_EPOCH":"12535","ARG_OF_PERICENTER":"110.3274","OBJECT_NAME":"STARLINK-2218","TIME_SYSTEM":"UTC","TLE_LINE2":"2 47999  53.0548  52.0862 0000664 110.3274 249.7787 15.06394437125354","MEAN_MOTION_DOT":"0.00011273","LAUNCH_DATE":"2021-03-24","APOAPSIS":"547.690","ECCENTRICITY":"0.00006640","PERIAPSIS":"546.771","MEAN_ELEMENT_THEORY":"SGP4","MEAN_ANOMALY":"249.7787","NORAD_CAT_ID":"47999","FILE":"3934949","RCS_SIZE":"LARGE","GP_ID":"234093041","REF_FRAME":"TEME","DECAY_DATE":null,"TLE_LINE1":"1 47999U 21024Y   23167.74313821  .00011273  00000-0  77459-3 0  9994","SEMIMAJOR_AXIS":"6925.366","MEAN_MOTION_DDOT":"0.0000000000000","SITE":"AFETR","ELEMENT_SET_NO":"999","CENTER_NAME":"EARTH","INCLINATION":"53.0548","OBJECT_TYPE":"PAYLOAD","PERIOD":"95.592","BSTAR":"0.00077459000000","EPHEMERIS_TYPE":"0","EPOCH":"2023-06-16T17:50:07.141344","MEAN_MOTION":"15.06394437","COUNTRY_CODE":"US","CLASSIFICATION_TYPE":"U","RA_OF_ASC_NODE":"52.0862","OBJECT_ID":"2021-024Y"},{"APOAPSIS":"548.056","LAUNCH_DATE":"2021-03-24","MEAN_ANOMALY":"252.7277","PERIAPSIS":"546.278","MEAN_ELEMENT_THEORY":"SGP4","ECCENTRICITY":"0.00012840","FILE":"3934949","NORAD_CAT_ID":"48000","RCS_SIZE":"LARGE","REF_FRAME":"TEME","GP_ID":"234094289","TIME_SYSTEM":"UTC","OBJECT_NAME":"STARLINK-2270","ARG_OF_PERICENTER":"107.3852","REV_AT_EPOCH":"12556","TLE_LINE2":"2 48000  53.0549  37.5972 0001284 107.3852 252.7277 15.06415138125569","MEAN_MOTION_DOT":"0.00009818","CLASSIFICATION_TYPE":"U","COUNTRY_CODE":"US","RA_OF_ASC_NODE":"37.5972","OBJECT_ID":"2021-024Z","DECAY_DATE":null,"ELEMENT_SET_NO":"999","CENTER_NAME":"EARTH","MEAN_MOTION_DDOT":"0.0000000000000","SITE":"AFETR","SEMIMAJOR_AXIS":"6925.302","TLE_LINE1":"1 48000U 21024Z   23167.67361052  .00009818  00000-0  67684-3 0  9990","BSTAR":"0.00067684000000","PERIOD":"95.591","OBJECT_TYPE":"PAYLOAD","INCLINATION":"53.0549","MEAN_MOTION":"15.06415138","EPOCH":"2023-06-16T16:09:59.948928","EPHEMERIS_TYPE":"0"},{"FILE":"3934686","NORAD_CAT_ID":"48002","RCS_SIZE":"LARGE","GP_ID":"234060643","REF_FRAME":"TEME","APOAPSIS":"547.899","LAUNCH_DATE":"2021-03-24","ECCENTRICITY":"0.00010680","MEAN_ANOMALY":"280.0070","PERIAPSIS":"546.420","MEAN_ELEMENT_THEORY":"SGP4","TLE_LINE2":"2 48002  53.0546  58.7817 0001068  80.1040 280.0070 15.06417757125236","MEAN_MOTION_DOT":"0.00010147","OBJECT_NAME":"STARLINK-2265","TIME_SYSTEM":"UTC","REV_AT_EPOCH":"12523","ARG_OF_PERICENTER":"80.1040","RA_OF_ASC_NODE":"58.7817","OBJECT_ID":"2021-024AB","CLASSIFICATION_TYPE":"U","COUNTRY_CODE":"US","PERIOD":"95.591","BSTAR":"0.00069876000000","INCLINATION":"53.0546","OBJECT_TYPE":"PAYLOAD","MEAN_MOTION":"15.06417757","EPHEMERIS_TYPE":"0","EPOCH":"2023-06-16T10:27:40.292928","DECAY_DATE":null,"SITE":"AFETR","MEAN_MOTION_DDOT":"0.0000000000000","CENTER_NAME":"EARTH","ELEMENT_SET_NO":"999","SEMIMAJOR_AXIS":"6925.294","TLE_LINE1":"1 48002U 21024AB  23167.43588302  .00010147  00000-0  69876-3 0  9997"},{"MEAN_MOTION":"15.06411355","EPHEMERIS_TYPE":"0","EPOCH":"2023-06-16T05:23:03.499584","BSTAR":"0.00008727700000","PERIOD":"95.591","OBJECT_TYPE":"PAYLOAD","INCLINATION":"53.0546","CENTER_NAME":"EARTH","ELEMENT_SET_NO":"999","SITE":"AFETR","MEAN_MOTION_DDOT":"0.0000000000000","SEMIMAJOR_AXIS":"6925.314","TLE_LINE1":"1 48003U 21024AC  23167.22434606  .00001019  00000-0  87277-4 0  9996","DECAY_DATE":null,"OBJECT_ID":"2021-024AC","RA_OF_ASC_NODE":"134.4148","CLASSIFICATION_TYPE":"U","COUNTRY_CODE":"US","MEAN_MOTION_DOT":"0.00001019","TLE_LINE2":"2 48003  53.0546 134.4148 0001220  97.3176 262.7952 15.06411355124150","TIME_SYSTEM":"UTC","OBJECT_NAME":"STARLINK-2263","ARG_OF_PERICENTER":"97.3176","REV_AT_EPOCH":"12415","GP_ID":"234061897","REF_FRAME":"TEME","FILE":"3934686","RCS_SIZE":"LARGE","NORAD_CAT_ID":"48003","MEAN_ANOMALY":"262.7952","PERIAPSIS":"546.334","MEAN_ELEMENT_THEORY":"SGP4","ECCENTRICITY":"0.00012200","APOAPSIS":"548.024","LAUNCH_DATE":"2021-03-24"},{"DECAY_DATE":null,"SITE":"AFETR","MEAN_MOTION_DDOT":"0.0000000000000","ELEMENT_SET_NO":"999","CENTER_NAME":"EARTH","SEMIMAJOR_AXIS":"6925.313","TLE_LINE1":"1 48005U 21024AE  23167.53305433  .00008918  00000-0  61665-3 0  9994","PERIOD":"95.591","BSTAR":"0.00061665000000","INCLINATION":"53.0557","OBJECT_TYPE":"PAYLOAD","MEAN_MOTION":"15.06411605","EPOCH":"2023-06-16T12:47:35.894112","EPHEMERIS_TYPE":"0","CLASSIFICATION_TYPE":"U","COUNTRY_CODE":"US","RA_OF_ASC_NODE":"103.0291","OBJECT_ID":"2021-024AE","OBJECT_NAME":"STARLINK-2254","TIME_SYSTEM":"UTC","REV_AT_EPOCH":"12416","ARG_OF_PERICENTER":"90.3522","TLE_LINE2":"2 48005  53.0557 103.0291 0002081  90.3522 269.7706 15.06411605124162","MEAN_MOTION_DOT":"0.00008918","APOAPSIS":"548.619","LAUNCH_DATE":"2021-03-24","ECCENTRICITY":"0.00020810","MEAN_ANOMALY":"269.7706","PERIAPSIS":"545.737","MEAN_ELEMENT_THEORY":"SGP4","NORAD_CAT_ID":"48005","FILE":"3934831","RCS_SIZE":"LARGE","GP_ID":"234070164","REF_FRAME":"TEME"},{"BSTAR":"0.00016660000000","PERIOD":"95.592","OBJECT_TYPE":"PAYLOAD","INCLINATION":"53.0551","MEAN_MOTION":"15.06399194","EPOCH":"2023-06-16T18:05:22.844832","EPHEMERIS_TYPE":"0","DECAY_DATE":null,"ELEMENT_SET_NO":"999","CENTER_NAME":"EARTH","MEAN_MOTION_DDOT":"0.0000000000000","SITE":"AFETR","TLE_LINE1":"1 48008U 21024AH  23167.75373663  .00002201  00000-0  16660-3 0  9995","SEMIMAJOR_AXIS":"6925.351","RA_OF_ASC_NODE":"37.0359","OBJECT_ID":"2021-024AH","CLASSIFICATION_TYPE":"U","COUNTRY_CODE":"US","TLE_LINE2":"2 48008  53.0551  37.0359 0000628  99.3168 260.7892 15.06399194125571","MEAN_MOTION_DOT":"0.00002201","TIME_SYSTEM":"UTC","OBJECT_NAME":"STARLINK-2271","ARG_OF_PERICENTER":"99.3168","REV_AT_EPOCH":"12557","NORAD_CAT_ID":"48008","FILE":"3934949","RCS_SIZE":"LARGE","REF_FRAME":"TEME","GP_ID":"234093790","APOAPSIS":"547.651","LAUNCH_DATE":"2021-03-24","MEAN_ELEMENT_THEORY":"SGP4","PERIAPSIS":"546.781","MEAN_ANOMALY":"260.7892","ECCENTRICITY":"0.00006280"}];
